[
    {
        "Altitude(m)": 555234.6378330843,
        "Argument of Periapsis(deg)": 0.013245982221427002,
        "Eccentricity": 0.0,
        "Inclination(deg)": 53.0,
        "Latitude(deg)": -6.073353092370773,
        "Longitude(deg)": 117.99693504367042,
        "Mean Anomaly(deg)": 187.45598573515517,
        "RAAN(deg)": 34.98028673705603,
        "Satellite Name": "Starlink Shell 1 164",
        "Satellite Number": 164,
        "Semi-Major Axis(m)": 6931778.249405717,
        "Time(s)": 380
    },
    {
        "Altitude(m)": 555334.0749451019,
        "Argument of Periapsis(deg)": 0.013594560700938237,
        "Eccentricity": 0.0,
        "Inclination(deg)": 53.0,
        "Latitude(deg)": -6.575353569566339,
        "Longitude(deg)": 118.33679416872887,
        "Mean Anomaly(deg)": 188.08281693871191,
        "RAAN(deg)": 34.97976796697856,
        "Satellite Name": "Starlink Shell 1 164",
        "Satellite Number": 164,
        "Semi-Major Axis(m)": 6931778.249405717,
        "Time(s)": 390
    },
    {
        "Altitude(m)": 555436.0894023379,
        "Argument of Periapsis(deg)": 0.013943139180449475,
        "Eccentricity": 0.0,
        "Inclination(deg)": 53.0,
        "Latitude(deg)": -7.077041314828724,
        "Longitude(deg)": 118.677408722074,
        "Mean Anomaly(deg)": 188.70964814226863,
        "RAAN(deg)": 34.97924919690109,
        "Satellite Name": "Starlink Shell 1 164",
        "Satellite Number": 164,
        "Semi-Major Axis(m)": 6931778.249405717,
        "Time(s)": 400
    },
    {
        "Altitude(m)": 555540.6552233651,
        "Argument of Periapsis(deg)": 0.014291717659960712,
        "Eccentricity": 0.0,
        "Inclination(deg)": 53.0,
        "Latitude(deg)": -7.578392397795193,
        "Longitude(deg)": 119.01883898365854,
        "Mean Anomaly(deg)": 189.33647934582532,
        "RAAN(deg)": 34.97873042682362,
        "Satellite Name": "Starlink Shell 1 164",
        "Satellite Number": 164,
        "Semi-Major Axis(m)": 6931778.249405717,
        "Time(s)": 410
    },
    {
        "Altitude(m)": 555647.7451553356,
        "Argument of Periapsis(deg)": 0.014640296139471948,
        "Eccentricity": 0.0,
        "Inclination(deg)": 53.0,
        "Latitude(deg)": -8.079382722641734,
        "Longitude(deg)": 119.3611450810929,
        "Mean Anomaly(deg)": 189.96331054938204,
        "RAAN(deg)": 34.97821165674614,
        "Satellite Name": "Starlink Shell 1 164",
        "Satellite Number": 164,
        "Semi-Major Axis(m)": 6931778.249405717,
        "Time(s)": 420
    },
    {
        "Altitude(m)": 555757.3306848236,
        "Argument of Periapsis(deg)": 0.014988874618983185,
        "Eccentricity": 0.0,
        "Inclination(deg)": 53.0,
        "Latitude(deg)": -8.579988015239248,
        "Longitude(deg)": 119.7043875198075,
        "Mean Anomaly(deg)": 190.5901417529388,
        "RAAN(deg)": 34.97769288666867,
        "Satellite Name": "Starlink Shell 1 164",
        "Satellite Number": 164,
        "Semi-Major Axis(m)": 6931778.249405717,
        "Time(s)": 430
    },
    {
        "Altitude(m)": 555869.3820493284,
        "Argument of Periapsis(deg)": 0.015337453098494424,
        "Eccentricity": 0.0,
        "Inclination(deg)": 53.0,
        "Latitude(deg)": -9.080183810139625,
        "Longitude(deg)": 120.04862771329651,
        "Mean Anomaly(deg)": 191.21697295649545,
        "RAAN(deg)": 34.9771741165912,
        "Satellite Name": "Starlink Shell 1 164",
        "Satellite Number": 164,
        "Semi-Major Axis(m)": 6931778.249405717,
        "Time(s)": 440
    },
    {
        "Altitude(m)": 555983.8682493703,
        "Argument of Periapsis(deg)": 0.01568603157800566,
        "Eccentricity": 0.0,
        "Inclination(deg)": 53.0,
        "Latitude(deg)": -9.579945437379134,
        "Longitude(deg)": 120.39392700057302,
        "Mean Anomaly(deg)": 191.8438041600522,
        "RAAN(deg)": 34.976655346513716,
        "Satellite Name": "Starlink Shell 1 164",
        "Satellite Number": 164,
        "Semi-Major Axis(m)": 6931778.249405717,
        "Time(s)": 450
    },
    {
        "Altitude(m)": 556100.757061234,
        "Argument of Periapsis(deg)": 0.0160346100575169,
        "Eccentricity": 0.0,
        "Inclination(deg)": 53.0,
        "Latitude(deg)": -10.079248009089287,
        "Longitude(deg)": 120.74034717658093,
        "Mean Anomaly(deg)": 192.4706353636089,
        "RAAN(deg)": 34.97613657643625,
        "Satellite Name": "Starlink Shell 1 164",
        "Satellite Number": 164,
        "Semi-Major Axis(m)": 6931778.249405717,
        "Time(s)": 460
    },
    {
        "Altitude(m)": 556220.0150503089,
        "Argument of Periapsis(deg)": 0.016383188537028134,
        "Eccentricity": 0.0,
        "Inclination(deg)": 53.0,
        "Latitude(deg)": -10.57806640590204,
        "Longitude(deg)": 121.08795102269022,
        "Mean Anomaly(deg)": 193.0974665671656,
        "RAAN(deg)": 34.97561780635878,
        "Satellite Name": "Starlink Shell 1 164",
        "Satellite Number": 164,
        "Semi-Major Axis(m)": 6931778.249405717,
        "Time(s)": 470
    },
    {
        "Altitude(m)": 556341.6075850114,
        "Argument of Periapsis(deg)": 0.01673176701653937,
        "Eccentricity": 0.0,
        "Inclination(deg)": 53.0,
        "Latitude(deg)": -11.076375263136356,
        "Longitude(deg)": 121.436801324401,
        "Mean Anomaly(deg)": 193.72429777072233,
        "RAAN(deg)": 34.9750990362813,
        "Satellite Name": "Starlink Shell 1 164",
        "Satellite Number": 164,
        "Semi-Major Axis(m)": 6931778.249405717,
        "Time(s)": 480
    },
    {
        "Altitude(m)": 556465.498851325,
        "Argument of Periapsis(deg)": 0.017080345496050607,
        "Eccentricity": 0.0,
        "Inclination(deg)": 53.0,
        "Latitude(deg)": -11.574148956755959,
        "Longitude(deg)": 121.78696140199946,
        "Mean Anomaly(deg)": 194.3511289742791,
        "RAAN(deg)": 34.97458026620383,
        "Satellite Name": "Starlink Shell 1 164",
        "Satellite Number": 164,
        "Semi-Major Axis(m)": 6931778.249405717,
        "Time(s)": 490
    },
    {
        "Altitude(m)": 556591.6518679275,
        "Argument of Periapsis(deg)": 0.017428923975561842,
        "Eccentricity": 0.0,
        "Inclination(deg)": 53.0,
        "Latitude(deg)": -12.07136158908514,
        "Longitude(deg)": 122.13849564128739,
        "Mean Anomaly(deg)": 194.97796017783577,
        "RAAN(deg)": 34.97406149612635,
        "Satellite Name": "Starlink Shell 1 164",
        "Satellite Number": 164,
        "Semi-Major Axis(m)": 6931778.249405717,
        "Time(s)": 500
    },
    {
        "Altitude(m)": 556720.028501875,
        "Argument of Periapsis(deg)": 0.01777750245507308,
        "Eccentricity": 0.0,
        "Inclination(deg)": 53.0,
        "Latitude(deg)": -12.567986974269928,
        "Longitude(deg)": 122.49146851150921,
        "Mean Anomaly(deg)": 195.60479138139252,
        "RAAN(deg)": 34.97354272604888,
        "Satellite Name": "Starlink Shell 1 164",
        "Satellite Number": 164,
        "Semi-Major Axis(m)": 6931778.249405717,
        "Time(s)": 510
    },
    {
        "Altitude(m)": 556850.5894848814,
        "Argument of Periapsis(deg)": 0.018126080934584315,
        "Eccentricity": 0.0,
        "Inclination(deg)": 53.0,
        "Latitude(deg)": -13.06399862347264,
        "Longitude(deg)": 122.84594509621097,
        "Mean Anomaly(deg)": 196.23162258494918,
        "RAAN(deg)": 34.973023955971414,
        "Satellite Name": "Starlink Shell 1 164",
        "Satellite Number": 164,
        "Semi-Major Axis(m)": 6931778.249405717,
        "Time(s)": 520
    },
    {
        "Altitude(m)": 556983.2944301354,
        "Argument of Periapsis(deg)": 0.018474659414095554,
        "Eccentricity": 0.0,
        "Inclination(deg)": 53.0,
        "Latitude(deg)": -13.55936972978958,
        "Longitude(deg)": 123.20199162415378,
        "Mean Anomaly(deg)": 196.85845378850593,
        "RAAN(deg)": 34.97250518589394,
        "Satellite Name": "Starlink Shell 1 164",
        "Satellite Number": 164,
        "Semi-Major Axis(m)": 6931778.249405717,
        "Time(s)": 530
    },
    {
        "Altitude(m)": 557118.1018496945,
        "Argument of Periapsis(deg)": 0.018823237893606792,
        "Eccentricity": 0.0,
        "Inclination(deg)": 53.0,
        "Latitude(deg)": -14.054073152874402,
        "Longitude(deg)": 123.55967448739415,
        "Mean Anomaly(deg)": 197.48528499206267,
        "RAAN(deg)": 34.97198641581647,
        "Satellite Name": "Starlink Shell 1 164",
        "Satellite Number": 164,
        "Semi-Major Axis(m)": 6931778.249405717,
        "Time(s)": 540
    },
    {
        "Altitude(m)": 557254.969172381,
        "Argument of Periapsis(deg)": 0.019171816373118027,
        "Eccentricity": 0.0,
        "Inclination(deg)": 53.0,
        "Latitude(deg)": -14.548081403260946,
        "Longitude(deg)": 123.91906077226672,
        "Mean Anomaly(deg)": 198.11211619561936,
        "RAAN(deg)": 34.971467645739,
        "Satellite Name": "Starlink Shell 1 164",
        "Satellite Number": 164,
        "Semi-Major Axis(m)": 6931778.249405717,
        "Time(s)": 550
    },
    {
        "Altitude(m)": 557393.8527622824,
        "Argument of Periapsis(deg)": 0.019520394852629266,
        "Eccentricity": 0.0,
        "Inclination(deg)": 53.0,
        "Latitude(deg)": -15.041366626369589,
        "Longitude(deg)": 124.28021879038027,
        "Mean Anomaly(deg)": 198.73894739917608,
        "RAAN(deg)": 34.97094887566152,
        "Satellite Name": "Starlink Shell 1 164",
        "Satellite Number": 164,
        "Semi-Major Axis(m)": 6931778.249405717,
        "Time(s)": 560
    }
]